[{"OBJECT_NAME":"LEMUR-2-KREMPEL-BRO1","OBJECT_ID":"2025-061G","EPOCH":"2026-03-03T20:22:20.571744","MEAN_MOTION":15.1369681,"ECCENTRICITY":0.00171178,"INCLINATION":97.552,"RA_OF_ASC_NODE":39.4986,"ARG_OF_PERICENTER":250.9633,"MEAN_ANOMALY":108.9745,"EPHEMERIS_TYPE":0,"CLASSIFICATION_TYPE":"U","NORAD_CAT_ID":63357,"ELEMENT_SET_NO":999,"REV_AT_EPOCH":5169,"BSTAR":0.0003506567,"MEAN_MOTION_DOT":6.268e-5,"MEAN_MOTION_DDOT":0},{"OBJECT_NAME":"LEMUR-2-LANGER2SPACE","OBJECT_ID":"2025-061H","EPOCH":"2026-03-03T22:05:21.430752","MEAN_MOTION":15.13385196,"ECCENTRICITY":0.00150469,"INCLINATION":97.5524,"RA_OF_ASC_NODE":39.4263,"ARG_OF_PERICENTER":260.695,"MEAN_ANOMALY":99.2579,"EPHEMERIS_TYPE":0,"CLASSIFICATION_TYPE":"U","NORAD_CAT_ID":63358,"ELEMENT_SET_NO":999,"REV_AT_EPOCH":5169,"BSTAR":0.00037691147,"MEAN_MOTION_DOT":6.678e-5,"MEAN_MOTION_DDOT":0},{"OBJECT_NAME":"LEMUR-2-BALTO","OBJECT_ID":"2025-052BH","EPOCH":"2026-03-03T22:53:24.426816","MEAN_MOTION":14.98832695,"ECCENTRICITY":0.0003029,"INCLINATION":97.7003,"RA_OF_ASC_NODE":317.847,"ARG_OF_PERICENTER":15.744,"MEAN_ANOMALY":344.3877,"EPHEMERIS_TYPE":0,"CLASSIFICATION_TYPE":"U","NORAD_CAT_ID":63395,"ELEMENT_SET_NO":999,"REV_AT_EPOCH":5299,"BSTAR":0.0007917563,"MEAN_MOTION_DOT":9.502e-5,"MEAN_MOTION_DDOT":0}]
