LEMUR-2-KREMPEL-BRO1    
1 63357U 25061G   26062.84884921  .00006268  00000+0  35066-3 0  9992
2 63357  97.5520  39.4986 0017117 250.9633 108.9745 15.13696810 51693
LEMUR-2-LANGER2SPACE    
1 63358U 25061H   26062.92038693  .00006678  00000+0  37691-3 0  9990
2 63358  97.5524  39.4263 0015046 260.6950  99.2579 15.13385196 51694
LEMUR-2-BALTO           
1 63395U 25052BH  26062.95375494  .00009502  00000+0  79176-3 0  9990
2 63395  97.7003 317.8470 0003029  15.7440 344.3877 14.98832695 52995
